OBJECT_NAME,OBJECT_ID,EPOCH,MEAN_MOTION,ECCENTRICITY,INCLINATION,RA_OF_ASC_NODE,ARG_OF_PERICENTER,MEAN_ANOMALY,EPHEMERIS_TYPE,CLASSIFICATION_TYPE,NORAD_CAT_ID,ELEMENT_SET_NO,REV_AT_EPOCH,BSTAR,MEAN_MOTION_DOT,MEAN_MOTION_DDOT
STARLINK-5880,2023-094C,2026-06-25T05:44:13.780896,15.27577066,.00017921,43.0044,146.7599,295.0235,65.0430,0,U,57220,999,16352,.4552253E-5,-.137E-5,0
STARLINK-5875,2023-094D,2026-06-25T05:04:25.663296,16.12236098,.00031352,42.9948,130.6620,239.4191,120.6382,0,U,57221,999,16370,.70839531E-3,.806561E-2,.37786965E-3
STARLINK-5870,2023-094E,2026-06-25T05:09:47.471328,15.27586866,.0001216,43.0030,143.1709,271.6998,88.3714,0,U,57222,999,16419,.56816285E-4,.1302E-4,0
STARLINK-5519,2023-094F,2026-06-25T05:18:18.375264,15.27589488,.00010354,43.0014,146.6286,275.6746,84.3988,0,U,57223,999,16352,.70075324E-4,.1667E-4,0
STARLINK-5983,2023-094G,2026-06-25T05:15:20.011104,15.27575118,.00011511,43.0031,143.1982,278.2528,81.8193,0,U,57224,999,16356,-.4405655E-5,-.383E-5,0
STARLINK-6294,2023-094H,2026-06-25T04:53:19.972896,15.27580472,.00010746,42.9997,143.9390,268.7301,91.3427,0,U,57225,999,16355,.30388877E-4,.574E-5,0
STARLINK-6350,2023-094J,2026-06-25T04:32:58.994880,15.27584588,.00015102,43.0005,143.8346,269.2818,90.7860,0,U,57226,999,16355,.27219064E-4,.487E-5,0
STARLINK-5996,2023-094K,2026-06-25T05:23:52.561824,15.27584191,.00015282,43.0033,146.6475,292.6359,67.4331,0,U,57227,999,16352,-.28928913E-4,-.1058E-4,0
STARLINK-6230,2023-094L,2026-06-25T04:54:58.626144,15.27579205,.00007403,43.0008,143.0923,262.3099,97.7669,0,U,57228,999,16356,.27285493E-4,.489E-5,0
STARLINK-6233,2023-094M,2026-06-25T04:38:32.250912,15.27574218,.00013695,43.0013,143.8661,265.7142,94.3553,0,U,57229,999,16355,.27374766E-4,.491E-5,0
STARLINK-6250,2023-094N,2026-06-25T04:42:14.014656,15.27578827,.00011358,43.0008,143.8830,270.5315,89.5407,0,U,57230,999,16355,.15785831E-4,.172E-5,0
STARLINK-5840,2023-094P,2026-06-24T04:55:05.208960,15.27576664,.00013378,43.0018,149.3402,265.5815,94.4883,0,U,57231,999,16340,.27940311E-4,.507E-5,0
STARLINK-5872,2023-094Q,2026-06-25T04:20:01.980672,15.27579838,.00011171,43.0026,143.7590,259.4991,100.5735,0,U,57232,999,16421,.3905268E-4,.813E-5,0
STARLINK-5866,2023-094R,2026-06-24T15:37:31.569312,15.27580861,.00016107,43.0026,146.6763,272.9235,87.1432,0,U,57233,999,16347,.32513927E-4,.633E-5,0
STARLINK-6368,2023-094S,2026-06-25T05:07:56.535456,15.27570589,.00009026,43.0037,143.1525,269.4195,90.6554,0,U,57234,999,16356,-.28251708E-4,-.1039E-4,0
STARLINK-6360,2023-094T,2026-06-24T23:22:46.969536,15.27565349,.00016606,43.0036,144.7998,266.2903,93.7759,0,U,57235,999,16352,-.2097221E-4,-.839E-5,0
STARLINK-6315,2023-094U,2026-06-24T22:51:31.698144,15.27577649,.0001534,43.0039,134.2009,262.8727,97.1950,0,U,57236,999,16364,.36746687E-4,.749E-5,0
STARLINK-6365,2023-094V,2026-06-24T23:09:50.003712,15.27568424,.00015082,43.0033,144.7277,280.1970,79.8711,0,U,57237,999,16352,.69974995E-4,.1663E-4,0
STARLINK-6334,2023-094W,2026-06-24T23:11:51.774144,15.27572093,.00030714,42.9966,134.2926,291.2740,68.7784,0,U,57238,999,16364,-.58497465E-4,-.1872E-4,0
STARLINK-6330,2023-094X,2026-06-25T05:13:28.930080,15.27575199,.00011863,43.0033,143.1811,288.4511,71.6212,0,U,57239,999,16356,-.1199709E-5,-.295E-5,0
STARLINK-6351,2023-094Y,2026-06-24T21:59:43.305216,15.27577780,.00004494,43.0012,133.9265,282.3251,77.7551,0,U,57240,999,16364,.16344114E-4,.188E-5,0
STARLINK-6349,2023-094Z,2026-06-24T22:57:05.237568,15.27574341,.00013167,43.0036,134.2278,270.5923,89.4778,0,U,57241,999,16364,.3429904E-5,-.168E-5,0
STARLINK-6306,2023-094AA,2026-06-24T21:32:10.475808,15.27579718,.00009017,43.0025,134.6407,263.0722,97.0027,0,U,57242,999,16363,.3592466E-5,-.163E-5,0
STARLINK-6346,2023-094AB,2026-06-24T23:00:47.091168,15.27578523,.00014731,43.0033,134.2445,266.8341,93.2343,0,U,57243,999,16364,.15567606E-4,.166E-5,0
STARLINK-5610,2023-094AC,2026-06-24T13:59:41.350272,15.27584099,.00005617,43.0010,135.7272,270.2056,89.8732,0,U,57244,999,16359,-.38577336E-4,-.1323E-4,0
STARLINK-5587,2023-094AD,2026-06-24T21:43:16.834944,15.27574285,.00010922,43.0012,134.6923,248.6982,111.3753,0,U,57245,999,16363,.62884444E-4,.1469E-4,0
STARLINK-5049,2023-094AE,2026-06-24T21:54:11.649312,15.27562630,.00007648,43.0007,133.8944,264.2921,95.7843,0,U,57246,999,16364,-.39913812E-4,-.1359E-4,0
STARLINK-5039,2023-094AF,2026-06-25T04:21:55.600128,15.27554794,.0000366,43.0019,132.4734,246.9667,113.1146,0,U,57247,999,16368,-.91536434E-4,-.2778E-4,0
STARLINK-5514,2023-094AG,2026-06-25T04:27:27.021024,15.27575925,.00008985,43.0029,132.5007,282.5197,77.5554,0,U,57248,999,16368,.7501231E-5,-.56E-6,0
STARLINK-5517,2023-094AH,2026-06-25T04:32:59.250624,15.27575811,.00008392,43.0041,132.4720,300.1839,59.8930,0,U,57249,999,16368,-.729931E-6,-.282E-5,0
