[{"id":"57220","name":"STARLINK-5880","tle1":"1 57220U 23094C   26176.23904839 -.00000137  00000+0  45523-5 0  9999","tle2":"2 57220  43.0044 146.7599 0001792 295.0235  65.0430 15.27577066163520"},{"id":"57221","name":"STARLINK-5875","tle1":"1 57221U 23094D   26176.21140814  .00806561  37787-3  70840-3 0  9991","tle2":"2 57221  42.9948 130.6620 0003135 239.4191 120.6382 16.12236098163701"},{"id":"57222","name":"STARLINK-5870","tle1":"1 57222U 23094E   26176.21513277  .00001302  00000+0  56816-4 0  9991","tle2":"2 57222  43.0030 143.1709 0001216 271.6998  88.3714 15.27586866164193"},{"id":"57223","name":"STARLINK-5519","tle1":"1 57223U 23094F   26176.22104601  .00001667  00000+0  70075-4 0  9997","tle2":"2 57223  43.0014 146.6286 0001035 275.6746  84.3988 15.27589488163526"},{"id":"57224","name":"STARLINK-5983","tle1":"1 57224U 23094G   26176.21898161 -.00000383  00000+0 -44057-5 0  9996","tle2":"2 57224  43.0031 143.1982 0001151 278.2528  81.8193 15.27575118163566"},{"id":"57225","name":"STARLINK-6294","tle1":"1 57225U 23094H   26176.20370339  .00000574  00000+0  30389-4 0  9990","tle2":"2 57225  42.9997 143.9390 0001074 268.7301  91.3427 15.27580472163558"},{"id":"57226","name":"STARLINK-6350","tle1":"1 57226U 23094J   26176.18957170  .00000487  00000+0  27219-4 0  9993","tle2":"2 57226  43.0005 143.8346 0001510 269.2818  90.7860 15.27584588163551"},{"id":"57227","name":"STARLINK-5996","tle1":"1 57227U 23094K   26176.22491391 -.00001058  00000+0 -28929-4 0  9993","tle2":"2 57227  43.0033 146.6475 0001528 292.6359  67.4331 15.27584191163527"},{"id":"57228","name":"STARLINK-6230","tle1":"1 57228U 23094L   26176.20484521  .00000489  00000+0  27285-4 0  9998","tle2":"2 57228  43.0008 143.0923 0000740 262.3099  97.7669 15.27579205163563"},{"id":"57229","name":"STARLINK-6233","tle1":"1 57229U 23094M   26176.19342883  .00000491  00000+0  27375-4 0  9994","tle2":"2 57229  43.0013 143.8661 0001369 265.7142  94.3553 15.27574218163554"},{"id":"57230","name":"STARLINK-6250","tle1":"1 57230U 23094N   26176.19599554  .00000172  00000+0  15786-4 0  9994","tle2":"2 57230  43.0008 143.8830 0001135 270.5315  89.5407 15.27578827163559"},{"id":"57231","name":"STARLINK-5840","tle1":"1 57231U 23094P   26175.20492140  .00000507  00000+0  27940-4 0  9996","tle2":"2 57231  43.0018 149.3402 0001337 265.5815  94.4883 15.27576664163404"},{"id":"57232","name":"STARLINK-5872","tle1":"1 57232U 23094Q   26176.18057848  .00000813  00000+0  39053-4 0  9995","tle2":"2 57232  43.0026 143.7590 0001117 259.4991 100.5735 15.27579838164214"},{"id":"57233","name":"STARLINK-5866","tle1":"1 57233U 23094R   26175.65105983  .00000633  00000+0  32514-4 0  9996","tle2":"2 57233  43.0026 146.6763 0001610 272.9235  87.1432 15.27580861163477"},{"id":"57234","name":"STARLINK-6368","tle1":"1 57234U 23094S   26176.21384879 -.00001039  00000+0 -28252-4 0  9990","tle2":"2 57234  43.0037 143.1525 0000902 269.4195  90.6554 15.27570589163567"},{"id":"57235","name":"STARLINK-6360","tle1":"1 57235U 23094T   26175.97415474 -.00000839  00000+0 -20972-4 0  9997","tle2":"2 57235  43.0036 144.7998 0001660 266.2903  93.7759 15.27565349163527"},{"id":"57236","name":"STARLINK-6315","tle1":"1 57236U 23094U   26175.95245021  .00000749  00000+0  36747-4 0  9990","tle2":"2 57236  43.0039 134.2009 0001534 262.8727  97.1950 15.27577649163644"},{"id":"57237","name":"STARLINK-6365","tle1":"1 57237U 23094V   26175.96516208  .00001663  00000+0  69975-4 0  9995","tle2":"2 57237  43.0033 144.7277 0001508 280.1970  79.8711 15.27568424163526"},{"id":"57238","name":"STARLINK-6334","tle1":"1 57238U 23094W   26175.96657146 -.00001872  00000+0 -58497-4 0  9994","tle2":"2 57238  42.9966 134.2926 0003071 291.2740  68.7784 15.27572093163647"},{"id":"57239","name":"STARLINK-6330","tle1":"1 57239U 23094X   26176.21769595 -.00000295  00000+0 -11997-5 0  9999","tle2":"2 57239  43.0033 143.1811 0001186 288.4511  71.6212 15.27575199163566"},{"id":"57240","name":"STARLINK-6351","tle1":"1 57240U 23094Y   26175.91647344  .00000188  00000+0  16344-4 0  9993","tle2":"2 57240  43.0012 133.9265 0000449 282.3251  77.7551 15.27577780163640"},{"id":"57241","name":"STARLINK-6349","tle1":"1 57241U 23094Z   26175.95631062 -.00000168  00000+0  34299-5 0  9997","tle2":"2 57241  43.0036 134.2278 0001316 270.5923  89.4778 15.27574341163645"},{"id":"57242","name":"STARLINK-6306","tle1":"1 57242U 23094AA  26175.89734347 -.00000163  00000+0  35925-5 0  9993","tle2":"2 57242  43.0025 134.6407 0000901 263.0722  97.0027 15.27579718163639"},{"id":"57243","name":"STARLINK-6346","tle1":"1 57243U 23094AB  26175.95887837  .00000166  00000+0  15568-4 0  9996","tle2":"2 57243  43.0033 134.2445 0001473 266.8341  93.2343 15.27578523163643"},{"id":"57244","name":"STARLINK-5610","tle1":"1 57244U 23094AC  26175.58311748 -.00001323  00000+0 -38577-4 0  9992","tle2":"2 57244  43.0010 135.7272 0000561 270.2056  89.8732 15.27584099163594"},{"id":"57245","name":"STARLINK-5587","tle1":"1 57245U 23094AD  26175.90505596  .00001469  00000+0  62884-4 0  9992","tle2":"2 57245  43.0012 134.6923 0001092 248.6982 111.3753 15.27574285163630"},{"id":"57246","name":"STARLINK-5049","tle1":"1 57246U 23094AE  26175.91263483 -.00001359  00000+0 -39914-4 0  9998","tle2":"2 57246  43.0007 133.8944 0000764 264.2921  95.7843 15.27562630163648"},{"id":"57247","name":"STARLINK-5039","tle1":"1 57247U 23094AF  26176.18189352 -.00002778  00000+0 -91536-4 0  9995","tle2":"2 57247  43.0019 132.4734 0000366 246.9667 113.1146 15.27554794163683"},{"id":"57248","name":"STARLINK-5514","tle1":"1 57248U 23094AG  26176.18572941 -.00000056  00000+0  75012-5 0  9994","tle2":"2 57248  43.0029 132.5007 0000898 282.5197  77.5554 15.27575925163688"},{"id":"57249","name":"STARLINK-5517","tle1":"1 57249U 23094AH  26176.18957466 -.00000282  00000+0 -72993-6 0  9992","tle2":"2 57249  43.0041 132.4720 0000839 300.1839  59.8930 15.27575811163684"}]